{
  "norad_id": 63018,
  "name": "STARLINK-32870",
  "history": [
    {
      "epoch": "2026-03-28T17:54:50.477184Z",
      "apogee_km": 484.0080473609178,
      "perigee_km": 482.0176277930368,
      "latitude_deg": 4.005890592414823e-05,
      "longitude_deg": 133.62408253822105,
      "height_km": 482.7617546222413,
      "semi_major_axis_km": 6861.149837576977,
      "eccentricity": 0.00014505,
      "inclination_deg": 42.9983,
      "raan_deg": 228.4968,
      "arg_perigee_deg": 271.5912,
      "mean_anomaly_deg": 88.4774,
      "mean_motion_rev_day": 15.27592109
    },
    {
      "epoch": "2026-03-30T01:17:57.629472Z",
      "apogee_km": 483.7409965038505,
      "perigee_km": 482.22578667657217,
      "latitude_deg": 1.0119605553914762e-05,
      "longitude_deg": 14.168000584827304,
      "height_km": 482.844388718019,
      "semi_major_axis_km": 6861.1203915902115,
      "eccentricity": 0.00011042,
      "inclination_deg": 42.9981,
      "raan_deg": 221.1095,
      "arg_perigee_deg": 263.5749,
      "mean_anomaly_deg": 96.4977,
      "mean_motion_rev_day": 15.27601943
    },
    {
      "epoch": "2026-03-30T15:25:21.902304Z",
      "apogee_km": 483.7980010219371,
      "perigee_km": 482.12883251254607,
      "latitude_deg": 7.57466282566361e-06,
      "longitude_deg": 158.4147339481471,
      "height_km": 482.5761011876279,
      "semi_major_axis_km": 6861.100416767242,
      "eccentricity": 0.00012164,
      "inclination_deg": 42.9996,
      "raan_deg": 217.7874,
      "arg_perigee_deg": 281.3199,
      "mean_anomaly_deg": 78.7516,
      "mean_motion_rev_day": 15.27608614
    },
    {
      "epoch": "2026-03-30T16:59:31.217280Z",
      "apogee_km": 483.8541800094772,
      "perigee_km": 482.05643660285386,
      "latitude_deg": 1.0705305959952528e-05,
      "longitude_deg": 134.4420779842042,
      "height_km": 482.5715729585874,
      "semi_major_axis_km": 6861.092308306165,
      "eccentricity": 0.00013101,
      "inclination_deg": 42.9993,
      "raan_deg": 217.418,
      "arg_perigee_deg": 280.2718,
      "mean_anomaly_deg": 79.7986,
      "mean_motion_rev_day": 15.27611322
    },
    {
      "epoch": "2026-03-31T18:06:03.698208Z",
      "apogee_km": 484.2116042951711,
      "perigee_km": 482.11890710718217,
      "latitude_deg": 1.3280096249991059e-05,
      "longitude_deg": 110.86575401533632,
      "height_km": 482.9357728770202,
      "semi_major_axis_km": 6861.302255701176,
      "eccentricity": 0.0001525,
      "inclination_deg": 42.9985,
      "raan_deg": 211.5082,
      "arg_perigee_deg": 270.3353,
      "mean_anomaly_deg": 89.7324,
      "mean_motion_rev_day": 15.27541208
    },
    {
      "epoch": "2026-04-01T14:30:05.307840Z",
      "apogee_km": 483.8926040462675,
      "perigee_km": 482.01129345652043,
      "latitude_deg": 4.686150515623098e-05,
      "longitude_deg": 159.2224675253384,
      "height_km": 482.8235173350616,
      "semi_major_axis_km": 6861.088948751394,
      "eccentricity": 0.0001371,
      "inclination_deg": 42.9996,
      "raan_deg": 206.7094,
      "arg_perigee_deg": 264.2059,
      "mean_anomaly_deg": 95.8637,
      "mean_motion_rev_day": 15.27612444
    },
    {
      "epoch": "2026-04-02T14:02:24.309312Z",
      "apogee_km": 483.77821775583925,
      "perigee_km": 481.9489377817945,
      "latitude_deg": -1.967322594479286e-05,
      "longitude_deg": 159.63752823980124,
      "height_km": 482.9018940509919,
      "semi_major_axis_km": 6861.000577768817,
      "eccentricity": 0.00013331,
      "inclination_deg": 42.999,
      "raan_deg": 201.1704,
      "arg_perigee_deg": 253.3629,
      "mean_anomaly_deg": 106.7076,
      "mean_motion_rev_day": 15.27641958
    },
    {
      "epoch": "2026-04-03T15:08:56.419584Z",
      "apogee_km": 484.46801106298244,
      "perigee_km": 481.98419761921195,
      "latitude_deg": -1.3350435468484037e-05,
      "longitude_deg": 136.0639557429687,
      "height_km": 483.0201726349376,
      "semi_major_axis_km": 6861.363104341097,
      "eccentricity": 0.000181,
      "inclination_deg": 43.0006,
      "raan_deg": 195.2618,
      "arg_perigee_deg": 269.2172,
      "mean_anomaly_deg": 90.8472,
      "mean_motion_rev_day": 15.27520888
    },
    {
      "epoch": "2026-04-04T14:41:16.594368Z",
      "apogee_km": 484.1169202889314,
      "perigee_km": 481.6387217355814,
      "latitude_deg": 4.733992514965494e-06,
      "longitude_deg": 136.47570300929678,
      "height_km": 482.58934306223944,
      "semi_major_axis_km": 6861.014821012256,
      "eccentricity": 0.0001806,
      "inclination_deg": 42.9994,
      "raan_deg": 189.7243,
      "arg_perigee_deg": 273.0273,
      "mean_anomaly_deg": 87.0372,
      "mean_motion_rev_day": 15.27637201
    },
    {
      "epoch": "2026-04-05T14:13:39.151200Z",
      "apogee_km": 483.89319889748003,
      "perigee_km": 482.3946951386515,
      "latitude_deg": 2.89436353852409e-05,
      "longitude_deg": 136.87560361377976,
      "height_km": 482.7811545920758,
      "semi_major_axis_km": 6861.2809470180655,
      "eccentricity": 0.0001092,
      "inclination_deg": 42.9988,
      "raan_deg": 184.1849,
      "arg_perigee_deg": 280.6993,
      "mean_anomaly_deg": 79.3736,
      "mean_motion_rev_day": 15.27548324
    },
    {
      "epoch": "2026-04-05T14:13:39.152064Z",
      "apogee_km": 483.89326751028966,
      "perigee_km": 482.3946265258419,
      "latitude_deg": 2.971634069351565e-05,
      "longitude_deg": 136.87560082800215,
      "height_km": 482.78114185567426,
      "semi_major_axis_km": 6861.2809470180655,
      "eccentricity": 0.00010921,
      "inclination_deg": 42.9988,
      "raan_deg": 184.1849,
      "arg_perigee_deg": 280.6993,
      "mean_anomaly_deg": 79.3736,
      "mean_motion_rev_day": 15.27548324
    },
    {
      "epoch": "2026-04-07T11:44:09.463488Z",
      "apogee_km": 483.6540078149128,
      "perigee_km": 482.29482164365527,
      "latitude_deg": -5.6892518062769355e-06,
      "longitude_deg": 161.67119643183008,
      "height_km": 482.876946733631,
      "semi_major_axis_km": 6861.111414729284,
      "eccentricity": 9.905e-05,
      "inclination_deg": 42.9985,
      "raan_deg": 173.4758,
      "arg_perigee_deg": 259.2824,
      "mean_anomaly_deg": 100.7916,
      "mean_motion_rev_day": 15.27604941
    },
    {
      "epoch": "2026-04-08T11:16:30.637056Z",
      "apogee_km": 483.21082315998865,
      "perigee_km": 482.78145344819404,
      "latitude_deg": 5.3562108248166676e-05,
      "longitude_deg": 162.0774122809347,
      "height_km": 482.9755773533326,
      "semi_major_axis_km": 6861.1331383040915,
      "eccentricity": 3.129e-05,
      "inclination_deg": 42.9931,
      "raan_deg": 167.9369,
      "arg_perigee_deg": 162.6646,
      "mean_anomaly_deg": 197.4217,
      "mean_motion_rev_day": 15.27597686
    },
    {
      "epoch": "2026-04-09T10:48:51.643008Z",
      "apogee_km": 483.3673560897578,
      "perigee_km": 482.6457010134254,
      "latitude_deg": -1.3463922301963568e-05,
      "longitude_deg": 162.48339374699995,
      "height_km": 482.90925337595843,
      "semi_major_axis_km": 6861.143528551592,
      "eccentricity": 5.259e-05,
      "inclination_deg": 42.9985,
      "raan_deg": 162.3972,
      "arg_perigee_deg": 249.3895,
      "mean_anomaly_deg": 110.69,
      "mean_motion_rev_day": 15.27594216
    },
    {
      "epoch": "2026-04-10T04:04:34.807584Z",
      "apogee_km": 484.34900382661453,
      "perigee_km": 481.6322717271605,
      "latitude_deg": -9.586659678004557e-06,
      "longitude_deg": -101.21688126642012,
      "height_km": 482.6140517658322,
      "semi_major_axis_km": 6861.127637776887,
      "eccentricity": 0.00019798,
      "inclination_deg": 42.9987,
      "raan_deg": 158.3357,
      "arg_perigee_deg": 276.4932,
      "mean_anomaly_deg": 83.5694,
      "mean_motion_rev_day": 15.27599523
    },
    {
      "epoch": "2026-04-11T14:36:01.224000Z",
      "apogee_km": 484.0161150047952,
      "perigee_km": 482.0071706821709,
      "latitude_deg": -6.206814466509943e-05,
      "longitude_deg": 91.38184095473571,
      "height_km": 482.94385996283364,
      "semi_major_axis_km": 6861.148642843483,
      "eccentricity": 0.0001464,
      "inclination_deg": 43.0011,
      "raan_deg": 150.2124,
      "arg_perigee_deg": 261.1018,
      "mean_anomaly_deg": 98.9667,
      "mean_motion_rev_day": 15.27592508
    },
    {
      "epoch": "2026-04-12T14:08:21.772896Z",
      "apogee_km": 484.12882016044387,
      "perigee_km": 481.86409722839926,
      "latitude_deg": 2.8914416494741346e-05,
      "longitude_deg": 91.79020259105258,
      "height_km": 482.89330705660495,
      "semi_major_axis_km": 6861.133458694421,
      "eccentricity": 0.00016504,
      "inclination_deg": 43.0008,
      "raan_deg": 144.673,
      "arg_perigee_deg": 263.9227,
      "mean_anomaly_deg": 96.1437,
      "mean_motion_rev_day": 15.27597579
    },
    {
      "epoch": "2026-04-14T13:13:03.605088Z",
      "apogee_km": 484.08874111138175,
      "perigee_km": 481.97550102209425,
      "latitude_deg": -3.8449783427936474e-05,
      "longitude_deg": 92.6047946296446,
      "height_km": 482.6739145894007,
      "semi_major_axis_km": 6861.169121066738,
      "eccentricity": 0.000154,
      "inclination_deg": 43.0007,
      "raan_deg": 133.5954,
      "arg_perigee_deg": 277.3467,
      "mean_anomaly_deg": 82.7209,
      "mean_motion_rev_day": 15.27585669
    },
    {
      "epoch": "2026-04-16T10:43:34.821984Z",
      "apogee_km": 484.09597680147454,
      "perigee_km": 481.8880654824716,
      "latitude_deg": -2.0774881386832833e-05,
      "longitude_deg": 117.39607188176812,
      "height_km": 482.6493109884516,
      "semi_major_axis_km": 6861.129021141973,
      "eccentricity": 0.0001609,
      "inclination_deg": 43.0009,
      "raan_deg": 122.8857,
      "arg_perigee_deg": 276.2243,
      "mean_anomaly_deg": 83.8425,
      "mean_motion_rev_day": 15.27599061
    }
  ]
}